{
  "type": "FeatureCollection",
  "features": [
    {
      "type": "Feature",
      "properties": {
        "norad_id": 30641,
        "name": "FENGYUN 1C DEB",
        "group": "fengyun-1c-debris",
        "lat": 42.98648586433713,
        "lon": 102.41491092938185,
        "alt_km": 535.5054915100218,
        "timestamp": "2025-12-06T07:31:40.514618+00:00",
        "meta_object_name": "FENGYUN 1C DEB",
        "meta_object_id": "1999-025ANY",
        "meta_epoch": "2025-12-05T07:14:18.500064",
        "meta_mean_motion": 14.78872181,
        "meta_eccentricity": 0.01359227,
        "meta_inclination": 98.9421,
        "meta_ra_of_asc_node": 272.8515,
        "meta_arg_of_pericenter": 149.9057,
        "meta_mean_anomaly": 1.651,
        "meta_ephemeris_type": 0,
        "meta_classification_type": "U",
        "meta_norad_cat_id": 30641,
        "meta_element_set_no": 999,
        "meta_rev_at_epoch": 422,
        "meta_bstar": 0.00090576003,
        "meta_mean_motion_dot": 7.732e-05,
        "meta_mean_motion_ddot": 0,
        "tle_line1": "1 30641U 99025ANY 25339.30160301  .00007732  00000+0  90576-3 0  9993",
        "tle_line2": "2 30641  98.9421 272.8515 0135922 149.9057   1.6510 14.78872181  4224"
      },
      "geometry": {
        "type": "Point",
        "coordinates": [
          102.41491092938185,
          42.98648586433713
        ]
      }
    },
    {
      "type": "Feature",
      "properties": {
        "norad_id": 30646,
        "name": "FENGYUN 1C DEB",
        "group": "fengyun-1c-debris",
        "lat": 34.84252514895618,
        "lon": -4.98148731423688,
        "alt_km": 824.2662292092709,
        "timestamp": "2025-12-06T07:31:40.514628+00:00",
        "meta_object_name": "FENGYUN 1C DEB",
        "meta_object_id": "1999-025APD",
        "meta_epoch": "2025-12-05T00:41:56.014656",
        "meta_mean_motion": 14.09624448,
        "meta_eccentricity": 0.00485716,
        "meta_inclination": 98.6527,
        "meta_ra_of_asc_node": 359.8687,
        "meta_arg_of_pericenter": 53.8256,
        "meta_mean_anomaly": 306.7394,
        "meta_ephemeris_type": 0,
        "meta_classification_type": "U",
        "meta_norad_cat_id": 30646,
        "meta_element_set_no": 999,
        "meta_rev_at_epoch": 96496,
        "meta_bstar": 0.0010679358,
        "meta_mean_motion_dot": 1.85e-05,
        "meta_mean_motion_ddot": 0,
        "tle_line1": "1 30646U 99025APD 25339.02912054  .00001850  00000+0  10679-2 0  9997",
        "tle_line2": "2 30646  98.6527 359.8687 0048571  53.8256 306.7394 14.09624448964966"
      },
      "geometry": {
        "type": "Point",
        "coordinates": [
          -4.98148731423688,
          34.84252514895618
        ]
      }
    },
    {
      "type": "Feature",
      "properties": {
        "norad_id": 30647,
        "name": "FENGYUN 1C DEB",
        "group": "fengyun-1c-debris",
        "lat": 44.606486700445956,
        "lon": 100.84231135327217,
        "alt_km": 691.2404993944747,
        "timestamp": "2025-12-06T07:31:40.514638+00:00",
        "meta_object_name": "FENGYUN 1C DEB",
        "meta_object_id": "1999-025APE",
        "meta_epoch": "2025-12-04T18:52:56.020800",
        "meta_mean_motion": 14.56227165,
        "meta_eccentricity": 0.00288037,
        "meta_inclination": 98.989,
        "meta_ra_of_asc_node": 270.2156,
        "meta_arg_of_pericenter": 199.8234,
        "meta_mean_anomaly": 214.8083,
        "meta_ephemeris_type": 0,
        "meta_classification_type": "U",
        "meta_norad_cat_id": 30647,
        "meta_element_set_no": 999,
        "meta_rev_at_epoch": 97873,
        "meta_bstar": 0.0059112224,
        "meta_mean_motion_dot": 0.0002633,
        "meta_mean_motion_ddot": 0,
        "tle_line1": "1 30647U 99025APE 25338.78675950  .00026330  00000+0  59112-2 0  9996",
        "tle_line2": "2 30647  98.9890 270.2156 0028803 199.8234 214.8083 14.56227165978734"
      },
      "geometry": {
        "type": "Point",
        "coordinates": [
          100.84231135327217,
          44.606486700445956
        ]
      }
    },
    {
      "type": "Feature",
      "properties": {
        "norad_id": 30648,
        "name": "FENGYUN 1C DEB",
        "group": "fengyun-1c-debris",
        "lat": 63.56899399335793,
        "lon": -87.3536599699414,
        "alt_km": 704.9493798871335,
        "timestamp": "2025-12-06T07:31:40.514649+00:00",
        "meta_object_name": "FENGYUN 1C DEB",
        "meta_object_id": "1999-025APF",
        "meta_epoch": "2025-12-05T06:14:29.095872",
        "meta_mean_motion": 14.47929706,
        "meta_eccentricity": 0.00348339,
        "meta_inclination": 98.6435,
        "meta_ra_of_asc_node": 73.7505,
        "meta_arg_of_pericenter": 149.7497,
        "meta_mean_anomaly": 236.6378,
        "meta_ephemeris_type": 0,
        "meta_classification_type": "U",
        "meta_norad_cat_id": 30648,
        "meta_element_set_no": 999,
        "meta_rev_at_epoch": 97758,
        "meta_bstar": 0.0045167509,
        "meta_mean_motion_dot": 0.0001687,
        "meta_mean_motion_ddot": 0,
        "tle_line1": "1 30648U 99025APF 25339.26005898  .00016870  00000+0  45168-2 0  9993",
        "tle_line2": "2 30648  98.6435  73.7505 0034833 149.7497 236.6378 14.47929706977587"
      },
      "geometry": {
        "type": "Point",
        "coordinates": [
          -87.3536599699414,
          63.56899399335793
        ]
      }
    },
    {
      "type": "Feature",
      "properties": {
        "norad_id": 30649,
        "name": "FENGYUN 1C DEB",
        "group": "fengyun-1c-debris",
        "lat": -24.783187234833594,
        "lon": 79.65840539381895,
        "alt_km": 829.4907481419059,
        "timestamp": "2025-12-06T07:31:40.514659+00:00",
        "meta_object_name": "FENGYUN 1C DEB",
        "meta_object_id": "1999-025APG",
        "meta_epoch": "2025-12-05T05:02:43.035648",
        "meta_mean_motion": 14.29412134,
        "meta_eccentricity": 0.00513956,
        "meta_inclination": 98.8103,
        "meta_ra_of_asc_node": 74.4367,
        "meta_arg_of_pericenter": 192.6329,
        "meta_mean_anomaly": 227.0274,
        "meta_ephemeris_type": 0,
        "meta_classification_type": "U",
        "meta_norad_cat_id": 30649,
        "meta_element_set_no": 999,
        "meta_rev_at_epoch": 96956,
        "meta_bstar": 0.004074845,
        "meta_mean_motion_dot": 0.0001051,
        "meta_mean_motion_ddot": 0,
        "tle_line1": "1 30649U 99025APG 25339.21022032  .00010510  00000+0  40748-2 0  9992",
        "tle_line2": "2 30649  98.8103  74.4367 0051395 192.6329 227.0274 14.29412134969569"
      },
      "geometry": {
        "type": "Point",
        "coordinates": [
          79.65840539381895,
          -24.783187234833594
        ]
      }
    },
    {
      "type": "Feature",
      "properties": {
        "norad_id": 30650,
        "name": "FENGYUN 1C DEB",
        "group": "fengyun-1c-debris",
        "lat": -26.864212846347197,
        "lon": 25.42365683419235,
        "alt_km": 881.7776459013694,
        "timestamp": "2025-12-06T07:31:40.514669+00:00",
        "meta_object_name": "FENGYUN 1C DEB",
        "meta_object_id": "1999-025APH",
        "meta_epoch": "2025-12-05T01:22:15.535200",
        "meta_mean_motion": 14.13869502,
        "meta_eccentricity": 0.00720486,
        "meta_inclination": 99.204,
        "meta_ra_of_asc_node": 19.4195,
        "meta_arg_of_pericenter": 210.8324,
        "meta_mean_anomaly": 209.1561,
        "meta_ephemeris_type": 0,
        "meta_classification_type": "U",
        "meta_norad_cat_id": 30650,
        "meta_element_set_no": 999,
        "meta_rev_at_epoch": 96190,
        "meta_bstar": 0.0032752859,
        "meta_mean_motion_dot": 6.321e-05,
        "meta_mean_motion_ddot": 0,
        "tle_line1": "1 30650U 99025APH 25339.05712425  .00006321  00000+0  32753-2 0  9990",
        "tle_line2": "2 30650  99.2040  19.4195 0072048 210.8324 209.1561 14.13869502961908"
      },
      "geometry": {
        "type": "Point",
        "coordinates": [
          25.42365683419235,
          -26.864212846347197
        ]
      }
    },
    {
      "type": "Feature",
      "properties": {
        "norad_id": 30652,
        "name": "FENGYUN 1C DEB",
        "group": "fengyun-1c-debris",
        "lat": 3.997317325352839,
        "lon": -165.7597103565137,
        "alt_km": 871.147018639278,
        "timestamp": "2025-12-06T07:31:40.514679+00:00",
        "meta_object_name": "FENGYUN 1C DEB",
        "meta_object_id": "1999-025APJ",
        "meta_epoch": "2025-12-05T01:57:24.476256",
        "meta_mean_motion": 14.07801408,
        "meta_eccentricity": 0.00073925,
        "meta_inclination": 98.7861,
        "meta_ra_of_asc_node": 12.4224,
        "meta_arg_of_pericenter": 289.9479,
        "meta_mean_anomaly": 124.9,
        "meta_ephemeris_type": 0,
        "meta_classification_type": "U",
        "meta_norad_cat_id": 30652,
        "meta_element_set_no": 999,
        "meta_rev_at_epoch": 96586,
        "meta_bstar": 0.00012334786,
        "meta_mean_motion_dot": 1.66e-06,
        "meta_mean_motion_ddot": 0,
        "tle_line1": "1 30652U 99025APJ 25339.08153329  .00000166  00000+0  12335-3 0  9993",
        "tle_line2": "2 30652  98.7861  12.4224 0007392 289.9479 124.9000 14.07801408965864"
      },
      "geometry": {
        "type": "Point",
        "coordinates": [
          -165.7597103565137,
          3.997317325352839
        ]
      }
    }
  ]
}